{
  "type": "FeatureCollection",
  "features": [
    {
      "type": "Feature",
      "properties": {
        "norad_id": 39773,
        "name": "EUTELSAT 3B",
        "group": "eutelsat",
        "lat": -0.011802651402544185,
        "lon": -22.101136188746455,
        "alt_km": 35792.09987534748,
        "timestamp": "2025-12-13T16:48:32.384736+00:00",
        "meta_object_name": "EUTELSAT 3B",
        "meta_object_id": "2014-030A",
        "meta_epoch": "2025-12-12T22:03:19.485792",
        "meta_mean_motion": 1.00270725,
        "meta_eccentricity": 0.00045579,
        "meta_inclination": 0.0608,
        "meta_ra_of_asc_node": 349.8245,
        "meta_arg_of_pericenter": 240.4306,
        "meta_mean_anomaly": 185.5307,
        "meta_ephemeris_type": 0,
        "meta_classification_type": "U",
        "meta_norad_cat_id": 39773,
        "meta_element_set_no": 999,
        "meta_rev_at_epoch": 4219,
        "meta_bstar": 0,
        "meta_mean_motion_dot": 3.2e-07,
        "meta_mean_motion_ddot": 0,
        "tle_line1": "1 39773U 14030A   25346.91897553  .00000032  00000+0  00000+0 0  9997",
        "tle_line2": "2 39773   0.0608 349.8245 0004557 240.4306 185.5307  1.00270725 42199"
      },
      "geometry": {
        "type": "Point",
        "coordinates": [
          -22.101136188746455,
          -0.011802651402544185
        ]
      }
    },
    {
      "type": "Feature",
      "properties": {
        "norad_id": 40425,
        "name": "EUTELSAT 115 WEST B",
        "group": "eutelsat",
        "lat": -0.0005776131264841014,
        "lon": -140.12835498464835,
        "alt_km": 35785.36181471148,
        "timestamp": "2025-12-13T16:48:32.384747+00:00",
        "meta_object_name": "EUTELSAT 115 WEST B",
        "meta_object_id": "2015-010B",
        "meta_epoch": "2025-12-12T23:12:23.635008",
        "meta_mean_motion": 1.00273842,
        "meta_eccentricity": 7.22e-06,
        "meta_inclination": 0.0199,
        "meta_ra_of_asc_node": 163.8927,
        "meta_arg_of_pericenter": 349.5019,
        "meta_mean_anomaly": 161.7193,
        "meta_ephemeris_type": 0,
        "meta_classification_type": "U",
        "meta_norad_cat_id": 40425,
        "meta_element_set_no": 999,
        "meta_rev_at_epoch": 3952,
        "meta_bstar": 0,
        "meta_mean_motion_dot": -1.3e-07,
        "meta_mean_motion_ddot": 0,
        "tle_line1": "1 40425U 15010B   25346.96694022 -.00000013  00000+0  00000+0 0  9993",
        "tle_line2": "2 40425   0.0199 163.8927 0000072 349.5019 161.7193  1.00273842 39526"
      },
      "geometry": {
        "type": "Point",
        "coordinates": [
          -140.12835498464835,
          -0.0005776131264841014
        ]
      }
    },
    {
      "type": "Feature",
      "properties": {
        "norad_id": 40875,
        "name": "EUTELSAT 8 WEST B",
        "group": "eutelsat",
        "lat": -0.04739049169524509,
        "lon": -33.18601850657888,
        "alt_km": 35778.28682333688,
        "timestamp": "2025-12-13T16:48:32.384759+00:00",
        "meta_object_name": "EUTELSAT 8 WEST B",
        "meta_object_id": "2015-039B",
        "meta_epoch": "2025-12-12T23:42:50.717664",
        "meta_mean_motion": 1.00271675,
        "meta_eccentricity": 0.00042195,
        "meta_inclination": 0.0658,
        "meta_ra_of_asc_node": 8.7404,
        "meta_arg_of_pericenter": 254.0731,
        "meta_mean_anomaly": 166.8393,
        "meta_ephemeris_type": 0,
        "meta_classification_type": "U",
        "meta_norad_cat_id": 40875,
        "meta_element_set_no": 999,
        "meta_rev_at_epoch": 3779,
        "meta_bstar": 0,
        "meta_mean_motion_dot": -5.3e-07,
        "meta_mean_motion_ddot": 0,
        "tle_line1": "1 40875U 15039B   25346.98808701 -.00000053  00000+0  00000+0 0  9990",
        "tle_line2": "2 40875   0.0658   8.7404 0004219 254.0731 166.8393  1.00271675 37797"
      },
      "geometry": {
        "type": "Point",
        "coordinates": [
          -33.18601850657888,
          -0.04739049169524509
        ]
      }
    },
    {
      "type": "Feature",
      "properties": {
        "norad_id": 41310,
        "name": "EUTELSAT 9B",
        "group": "eutelsat",
        "lat": -0.03932531658923988,
        "lon": -16.195535758470122,
        "alt_km": 35780.84621272724,
        "timestamp": "2025-12-13T16:48:32.384770+00:00",
        "meta_object_name": "EUTELSAT 9B",
        "meta_object_id": "2016-005A",
        "meta_epoch": "2025-12-12T22:05:04.319232",
        "meta_mean_motion": 1.00270124,
        "meta_eccentricity": 0.00046412,
        "meta_inclination": 0.0455,
        "meta_ra_of_asc_node": 64.5005,
        "meta_arg_of_pericenter": 206.0746,
        "meta_mean_anomaly": 151.5545,
        "meta_ephemeris_type": 0,
        "meta_classification_type": "U",
        "meta_norad_cat_id": 41310,
        "meta_element_set_no": 999,
        "meta_rev_at_epoch": 3624,
        "meta_bstar": 0,
        "meta_mean_motion_dot": 7.4e-07,
        "meta_mean_motion_ddot": 0,
        "tle_line1": "1 41310U 16005A   25346.92018888  .00000074  00000+0  00000+0 0  9994",
        "tle_line2": "2 41310   0.0455  64.5005 0004641 206.0746 151.5545  1.00270124 36243"
      },
      "geometry": {
        "type": "Point",
        "coordinates": [
          -16.195535758470122,
          -0.03932531658923988
        ]
      }
    },
    {
      "type": "Feature",
      "properties": {
        "norad_id": 41382,
        "name": "EUTELSAT 65 WEST A",
        "group": "eutelsat",
        "lat": -0.06743008485241209,
        "lon": -90.44247266726266,
        "alt_km": 35775.575031092034,
        "timestamp": "2025-12-13T16:48:32.384782+00:00",
        "meta_object_name": "EUTELSAT 65 WEST A",
        "meta_object_id": "2016-014A",
        "meta_epoch": "2025-12-12T23:26:37.272192",
        "meta_mean_motion": 1.00271881,
        "meta_eccentricity": 0.00024973,
        "meta_inclination": 0.0524,
        "meta_ra_of_asc_node": 14.9138,
        "meta_arg_of_pericenter": 254.8827,
        "meta_mean_anomaly": 98.5763,
        "meta_ephemeris_type": 0,
        "meta_classification_type": "U",
        "meta_norad_cat_id": 41382,
        "meta_element_set_no": 999,
        "meta_rev_at_epoch": 3566,
        "meta_bstar": 0,
        "meta_mean_motion_dot": -2.64e-06,
        "meta_mean_motion_ddot": 0,
        "tle_line1": "1 41382U 16014A   25346.97682028 -.00000264  00000+0  00000+0 0  9993",
        "tle_line2": "2 41382   0.0524  14.9138 0002497 254.8827  98.5763  1.00271881 35661"
      },
      "geometry": {
        "type": "Point",
        "coordinates": [
          -90.44247266726266,
          -0.06743008485241209
        ]
      }
    },
    {
      "type": "Feature",
      "properties": {
        "norad_id": 41589,
        "name": "EUTELSAT 117 WEST B",
        "group": "eutelsat",
        "lat": 0.007524501061485863,
        "lon": -142.2210137325823,
        "alt_km": 35786.9844175387,
        "timestamp": "2025-12-13T16:48:32.384793+00:00",
        "meta_object_name": "EUTELSAT 117 WEST B",
        "meta_object_id": "2016-038B",
        "meta_epoch": "2025-12-12T23:11:46.195296",
        "meta_mean_motion": 1.00271866,
        "meta_eccentricity": 2.512e-05,
        "meta_inclination": 0.011,
        "meta_ra_of_asc_node": 153.7448,
        "meta_arg_of_pericenter": 269.9053,
        "meta_mean_anomaly": 249.2194,
        "meta_ephemeris_type": 0,
        "meta_classification_type": "U",
        "meta_norad_cat_id": 41589,
        "meta_element_set_no": 999,
        "meta_rev_at_epoch": 3479,
        "meta_bstar": 0,
        "meta_mean_motion_dot": 1e-08,
        "meta_mean_motion_ddot": 0,
        "tle_line1": "1 41589U 16038B   25346.96650689  .00000001  00000+0  00000+0 0  9993",
        "tle_line2": "2 41589   0.0110 153.7448 0000251 269.9053 249.2194  1.00271866 34790"
      },
      "geometry": {
        "type": "Point",
        "coordinates": [
          -142.2210137325823,
          0.007524501061485863
        ]
      }
    },
    {
      "type": "Feature",
      "properties": {
        "norad_id": 42741,
        "name": "EUTELSAT 172B",
        "group": "eutelsat",
        "lat": 0.010247327280967547,
        "lon": 146.738459099697,
        "alt_km": 35787.22597969379,
        "timestamp": "2025-12-13T16:48:32.384805+00:00",
        "meta_object_name": "EUTELSAT 172B",
        "meta_object_id": "2017-029B",
        "meta_epoch": "2025-12-12T19:26:06.936000",
        "meta_mean_motion": 1.00270135,
        "meta_eccentricity": 1.944e-05,
        "meta_inclination": 0.0458,
        "meta_ra_of_asc_node": 145.1933,
        "meta_arg_of_pericenter": 209.1575,
        "meta_mean_anomaly": 190.9157,
        "meta_ephemeris_type": 0,
        "meta_classification_type": "U",
        "meta_norad_cat_id": 42741,
        "meta_element_set_no": 999,
        "meta_rev_at_epoch": 3186,
        "meta_bstar": 0,
        "meta_mean_motion_dot": 6e-08,
        "meta_mean_motion_ddot": 0,
        "tle_line1": "1 42741U 17029B   25346.80980250  .00000006  00000+0  00000+0 0  9993",
        "tle_line2": "2 42741   0.0458 145.1933 0000194 209.1575 190.9157  1.00270135 31865"
      },
      "geometry": {
        "type": "Point",
        "coordinates": [
          146.738459099697,
          0.010247327280967547
        ]
      }
    }
  ]
}